*******************************************************************************
Ephemeris / WWW_USER Mon Mar 24 09:13:57 2025 Pasadena, USA      / Horizons    
*******************************************************************************
Target body name: (2013 AZ60)                     {source: JPL#49}
Center body name: Earth (399)                     {source: DE441}
Center-site name: Mauna Kea
*******************************************************************************
Start time      : A.D. 2018-Nov-11 03:53:00.0000 UT      
Stop  time      : A.D. 2018-Nov-11 16:18:00.0000 UT      
Step-size       : 1 minutes
*******************************************************************************
Target pole/equ : undefined
Target radii    : undefined                                                    
Center geodetic : 204.5278, 19.8260847, 4.21024   {E-lon(deg),Lat(deg),Alt(km)}
Center cylindric: 204.5278, 6006.35451, 2151.0229 {E-lon(deg),Dxy(km),Dz(km)}
Center pole/equ : ITRF93                          {East-longitude positive}
Center radii    : 6378.137, 6378.137, 6356.752 km {Equator_a, b, pole_c}       
Target primary  : Sun
Vis. interferer : MOON (R_eq= 1737.400) km        {source: DE441}
Rel. light bend : Sun                             {source: DE441}
Rel. lght bnd GM: 1.3271E+11 km^3/s^2                                          
Small-body perts: Yes                             {source: SB441-N16}
Atmos refraction: NO (AIRLESS)
RA format       : HMS
Time format     : CAL 
Calendar mode   : Mixed Julian/Gregorian
RTS-only print  : NO       
EOP file        : eop.250321.p250617                                           
EOP coverage    : DATA-BASED 1962-JAN-20 TO 2025-MAR-21. PREDICTS-> 2025-JUN-16
Units conversion: 1 au= 149597870.700 km, c= 299792.458 km/s, 1 day= 86400.0 s 
Table cut-offs 1: Elevation (-90.0deg=NO ),Airmass (>38.000=NO), Daylight (YES)
Table cut-offs 2: Solar elongation (  0.0,180.0=NO ),Local Hour Angle( 0.0=NO )
Table cut-offs 3: RA/DEC angular rate (     0.0=NO )                           
*******************************************************************************
Initial IAU76/J2000 heliocentric ecliptic osculating elements (au, days, deg.):
  EPOCH=  2457400.5 ! 2016-Jan-13.00 (TDB)         Residual RMS= .1326         
   EC= .9891456016948332   QR= 7.910280980491398   TP= 2456989.3208761909      
   OM= 349.2102750469422   W=  158.2320149266156   IN= 16.53862471305098       
  Equivalent ICRF heliocentric cartesian coordinates (au, au/d):
   X=-8.215502218447208E+00  Y= 1.083611838195559E+00  Z= 3.298265209415168E-01
  VX=-2.822922434188891E-03 VY=-6.008885131743716E-03 VZ=-5.184670886061429E-03
Asteroid physical parameters (km, seconds, rotational period in hours):        
   GM= n.a.                RAD= n.a.               ROTPER= 9.39                
   H= 10.3                 G= .150                 B-V= n.a.                   
                           ALBEDO= n.a.            STYP= n.a.                  
*******************************************************************************
 Date__(UT)__HR:MN     R.A._________(ICRF)_________DEC
******************************************************
$$SOE
 2018-Nov-11 03:53 Cm  13 58 48.152277 -23 56 18.78414
 2018-Nov-11 03:54 Cm  13 58 48.169451 -23 56 18.89556
 2018-Nov-11 03:55 Cm  13 58 48.186626 -23 56 19.00698
 2018-Nov-11 03:56 Cm  13 58 48.203802 -23 56 19.11839
 2018-Nov-11 03:57 Cm  13 58 48.220978 -23 56 19.22981
 2018-Nov-11 03:58 Cm  13 58 48.238156 -23 56 19.34123
 2018-Nov-11 03:59 Cm  13 58 48.255334 -23 56 19.45266
 2018-Nov-11 04:00 Cm  13 58 48.272513 -23 56 19.56408
 2018-Nov-11 04:01 Cm  13 58 48.289693 -23 56 19.67551
 2018-Nov-11 04:02 Cm  13 58 48.306874 -23 56 19.78693
 2018-Nov-11 04:03 Cm  13 58 48.324056 -23 56 19.89836
 2018-Nov-11 04:04 Cm  13 58 48.341239 -23 56 20.00979
 2018-Nov-11 04:05 Cm  13 58 48.358422 -23 56 20.12122
 2018-Nov-11 04:06 Cm  13 58 48.375607 -23 56 20.23266
 2018-Nov-11 04:07 Nm  13 58 48.392792 -23 56 20.34409
 2018-Nov-11 04:08 Nm  13 58 48.409978 -23 56 20.45553
 2018-Nov-11 04:09 Nm  13 58 48.427165 -23 56 20.56697
 2018-Nov-11 04:10 Nm  13 58 48.444353 -23 56 20.67840
 2018-Nov-11 04:11 Nm  13 58 48.461541 -23 56 20.78985
 2018-Nov-11 04:12 Nm  13 58 48.478731 -23 56 20.90129
 2018-Nov-11 04:13 Nm  13 58 48.495921 -23 56 21.01273
 2018-Nov-11 04:14 Nm  13 58 48.513112 -23 56 21.12418
 2018-Nov-11 04:15 Nm  13 58 48.530304 -23 56 21.23563
 2018-Nov-11 04:16 Nm  13 58 48.547497 -23 56 21.34708
 2018-Nov-11 04:17 Nm  13 58 48.564690 -23 56 21.45853
 2018-Nov-11 04:18 Nm  13 58 48.581885 -23 56 21.56998
 2018-Nov-11 04:19 Nm  13 58 48.599080 -23 56 21.68144
 2018-Nov-11 04:20 Nm  13 58 48.616276 -23 56 21.79289
 2018-Nov-11 04:21 Nm  13 58 48.633473 -23 56 21.90435
 2018-Nov-11 04:22 Nm  13 58 48.650671 -23 56 22.01581
 2018-Nov-11 04:23 Nm  13 58 48.667869 -23 56 22.12728
 2018-Nov-11 04:24 Nm  13 58 48.685069 -23 56 22.23874
 2018-Nov-11 04:25 Nm  13 58 48.702269 -23 56 22.35021
 2018-Nov-11 04:26 Nm  13 58 48.719470 -23 56 22.46168
 2018-Nov-11 04:27 Nm  13 58 48.736672 -23 56 22.57315
 2018-Nov-11 04:28 Nm  13 58 48.753875 -23 56 22.68462
 2018-Nov-11 04:29 Nm  13 58 48.771078 -23 56 22.79610
 2018-Nov-11 04:30 Nm  13 58 48.788283 -23 56 22.90757
 2018-Nov-11 04:31 Nm  13 58 48.805488 -23 56 23.01905
 2018-Nov-11 04:32 Nm  13 58 48.822694 -23 56 23.13053
 2018-Nov-11 04:33 Nm  13 58 48.839900 -23 56 23.24201
 2018-Nov-11 04:34 Am  13 58 48.857108 -23 56 23.35350
 2018-Nov-11 04:35 Am  13 58 48.874316 -23 56 23.46499
 2018-Nov-11 04:36 Am  13 58 48.891526 -23 56 23.57648
 2018-Nov-11 04:37 Am  13 58 48.908736 -23 56 23.68797
 2018-Nov-11 04:38 Am  13 58 48.925947 -23 56 23.79946
 2018-Nov-11 04:39 Am  13 58 48.943158 -23 56 23.91096
 2018-Nov-11 04:40 Am  13 58 48.960371 -23 56 24.02246
 2018-Nov-11 04:41 Am  13 58 48.977584 -23 56 24.13396
 2018-Nov-11 04:42 Am  13 58 48.994798 -23 56 24.24546
 2018-Nov-11 04:43 Am  13 58 49.012013 -23 56 24.35697
 2018-Nov-11 04:44 Am  13 58 49.029228 -23 56 24.46848
 2018-Nov-11 04:45 Am  13 58 49.046445 -23 56 24.57999
 2018-Nov-11 04:46 Am  13 58 49.063662 -23 56 24.69150
 2018-Nov-11 04:47 Am  13 58 49.080880 -23 56 24.80301
 2018-Nov-11 04:48 Am  13 58 49.098099 -23 56 24.91453
 2018-Nov-11 04:49 Am  13 58 49.115318 -23 56 25.02605
 2018-Nov-11 04:50 Am  13 58 49.132539 -23 56 25.13757
 2018-Nov-11 04:51 Am  13 58 49.149760 -23 56 25.24910
 2018-Nov-11 04:52 Am  13 58 49.166982 -23 56 25.36063
 2018-Nov-11 04:53 Am  13 58 49.184204 -23 56 25.47216
 2018-Nov-11 04:54 Am  13 58 49.201428 -23 56 25.58369
 2018-Nov-11 04:55 Am  13 58 49.218652 -23 56 25.69522
 2018-Nov-11 04:56 Am  13 58 49.235877 -23 56 25.80676
 2018-Nov-11 04:57 Am  13 58 49.253103 -23 56 25.91830
 2018-Nov-11 04:58 Am  13 58 49.270329 -23 56 26.02985
 2018-Nov-11 04:59 Am  13 58 49.287557 -23 56 26.14139
 2018-Nov-11 05:00  m  13 58 49.304785 -23 56 26.25294
 2018-Nov-11 05:01  m  13 58 49.322013 -23 56 26.36449
 2018-Nov-11 05:02  m  13 58 49.339243 -23 56 26.47604
 2018-Nov-11 05:03  m  13 58 49.356473 -23 56 26.58760
 2018-Nov-11 05:04  m  13 58 49.373704 -23 56 26.69916
 2018-Nov-11 05:05  m  13 58 49.390936 -23 56 26.81072
 2018-Nov-11 05:06  m  13 58 49.408169 -23 56 26.92229
 2018-Nov-11 05:07  m  13 58 49.425402 -23 56 27.03385
 2018-Nov-11 05:08  m  13 58 49.442636 -23 56 27.14542
 2018-Nov-11 05:09  m  13 58 49.459871 -23 56 27.25700
 2018-Nov-11 05:10  m  13 58 49.477107 -23 56 27.36857
 2018-Nov-11 05:11  m  13 58 49.494343 -23 56 27.48015
 2018-Nov-11 05:12  m  13 58 49.511580 -23 56 27.59173
 2018-Nov-11 05:13  m  13 58 49.528818 -23 56 27.70332
 2018-Nov-11 05:14  m  13 58 49.546057 -23 56 27.81491
 2018-Nov-11 05:15  m  13 58 49.563296 -23 56 27.92650
 2018-Nov-11 05:16  m  13 58 49.580536 -23 56 28.03809
 2018-Nov-11 05:17  m  13 58 49.597777 -23 56 28.14969
 2018-Nov-11 05:18  m  13 58 49.615018 -23 56 28.26129
 2018-Nov-11 05:19  m  13 58 49.632260 -23 56 28.37289
 2018-Nov-11 05:20  m  13 58 49.649503 -23 56 28.48450
 2018-Nov-11 05:21  m  13 58 49.666747 -23 56 28.59611
 2018-Nov-11 05:22  m  13 58 49.683991 -23 56 28.70772
 2018-Nov-11 05:23  m  13 58 49.701236 -23 56 28.81933
 2018-Nov-11 05:24  m  13 58 49.718482 -23 56 28.93095
 2018-Nov-11 05:25  m  13 58 49.735728 -23 56 29.04257
 2018-Nov-11 05:26  m  13 58 49.752976 -23 56 29.15420
 2018-Nov-11 05:27  m  13 58 49.770224 -23 56 29.26583
 2018-Nov-11 05:28  m  13 58 49.787472 -23 56 29.37746
 2018-Nov-11 05:29  m  13 58 49.804721 -23 56 29.48909
 2018-Nov-11 05:30  m  13 58 49.821971 -23 56 29.60073
 2018-Nov-11 05:31  m  13 58 49.839222 -23 56 29.71237
 2018-Nov-11 05:32  m  13 58 49.856473 -23 56 29.82401
 2018-Nov-11 05:33  m  13 58 49.873726 -23 56 29.93566
 2018-Nov-11 05:34  m  13 58 49.890978 -23 56 30.04731
 2018-Nov-11 05:35  m  13 58 49.908232 -23 56 30.15897
 2018-Nov-11 05:36  m  13 58 49.925486 -23 56 30.27062
 2018-Nov-11 05:37  m  13 58 49.942741 -23 56 30.38228
 2018-Nov-11 05:38  m  13 58 49.959996 -23 56 30.49395
 2018-Nov-11 05:39  m  13 58 49.977252 -23 56 30.60561
 2018-Nov-11 05:40  m  13 58 49.994509 -23 56 30.71729
 2018-Nov-11 05:41  m  13 58 50.011767 -23 56 30.82896
 2018-Nov-11 05:42  m  13 58 50.029025 -23 56 30.94064
 2018-Nov-11 05:43  m  13 58 50.046284 -23 56 31.05232
 2018-Nov-11 05:44  m  13 58 50.063543 -23 56 31.16400
 2018-Nov-11 05:45  m  13 58 50.080803 -23 56 31.27569
 2018-Nov-11 05:46  m  13 58 50.098064 -23 56 31.38738
 2018-Nov-11 05:47  m  13 58 50.115326 -23 56 31.49908
 2018-Nov-11 05:48  m  13 58 50.132588 -23 56 31.61078
 2018-Nov-11 05:49  m  13 58 50.149850 -23 56 31.72248
 2018-Nov-11 05:50  m  13 58 50.167114 -23 56 31.83419
 2018-Nov-11 05:51  m  13 58 50.184378 -23 56 31.94590
 2018-Nov-11 05:52  m  13 58 50.201643 -23 56 32.05761
 2018-Nov-11 05:53  m  13 58 50.218908 -23 56 32.16933
 2018-Nov-11 05:54  m  13 58 50.236174 -23 56 32.28105
 2018-Nov-11 05:55  m  13 58 50.253440 -23 56 32.39277
